[{"OBJECT_NAME":"STARLINK-6274","OBJECT_ID":"2023-078K","EPOCH":"2026-03-09T22:06:02.226240","MEAN_MOTION":14.98332298,"ECCENTRICITY":0.00025794,"INCLINATION":70.0011,"RA_OF_ASC_NODE":324.0592,"ARG_OF_PERICENTER":244.8303,"MEAN_ANOMALY":115.2588,"EPHEMERIS_TYPE":0,"CLASSIFICATION_TYPE":"U","NORAD_CAT_ID":56776,"ELEMENT_SET_NO":999,"REV_AT_EPOCH":15320,"BSTAR":-6.8274288e-5,"MEAN_MOTION_DOT":-9.07e-6,"MEAN_MOTION_DDOT":0},{"OBJECT_NAME":"CZ-6A DEB","OBJECT_ID":"2024-140JQ","EPOCH":"2026-03-09T16:05:49.477056","MEAN_MOTION":15.15394204,"ECCENTRICITY":0.00800164,"INCLINATION":89.0638,"RA_OF_ASC_NODE":284.0631,"ARG_OF_PERICENTER":105.771,"MEAN_ANOMALY":255.2376,"EPHEMERIS_TYPE":0,"CLASSIFICATION_TYPE":"U","NORAD_CAT_ID":60861,"ELEMENT_SET_NO":999,"REV_AT_EPOCH":8511,"BSTAR":0.0025246282,"MEAN_MOTION_DOT":0.00051962,"MEAN_MOTION_DDOT":0}]
